{"type": "FeatureCollection", "features": [ {"type": "Feature", "properties": {"norad_id": 35594, "name": "COSMOS 2251 DEB", "group": "cosmos-2251-debris", "lat": 72.24761221017826, "lon": -146.15960592259293, "alt_km": 604.1365394521254, "timestamp": "2025-12-16T10:53:45.867418+00:00", "meta": {"OBJECT_NAME": "COSMOS 2251 DEB", "OBJECT_ID": "1993-036AMM", "EPOCH": "2025-12-11T07:49:43.768128", "MEAN_MOTION": 14.87869065, "ECCENTRICITY": 0.00302327, "INCLINATION": 73.8067, "RA_OF_ASC_NODE": 109.3962, "ARG_OF_PERICENTER": 220.7507, "MEAN_ANOMALY": 139.1411, "EPHEMERIS_TYPE": 0, "CLASSIFICATION_TYPE": "U", "NORAD_CAT_ID": 35594, "ELEMENT_SET_NO": 999, "REV_AT_EPOCH": 88164, "BSTAR": 0.003372362, "MEAN_MOTION_DOT": 0.00031222, "MEAN_MOTION_DDOT": 0}, "tle": {"line1": "1 35594U 93036AMM 25345.32620102  .00031222  00000+0  33724-2 0  9992", "line2": "2 35594  73.8067 109.3962 0030232 220.7507 139.1411 14.87869065881643"}}, "geometry": {"type": "Point", "coordinates": [-146.15960592259293, 72.24761221017826]}}, {"type": "Feature", "properties": {"norad_id": 35602, "name": "COSMOS 2251 DEB", "group": "cosmos-2251-debris", "lat": 59.82786477973276, "lon": -35.36680645977119, "alt_km": 487.410403010289, "timestamp": "2025-12-16T10:53:45.867428+00:00", "meta": {"OBJECT_NAME": "COSMOS 2251 DEB", "OBJECT_ID": "1993-036AMV", "EPOCH": "2025-12-15T18:48:14.426784", "MEAN_MOTION": 15.35191565, "ECCENTRICITY": 0.00895684, "INCLINATION": 73.9934, "RA_OF_ASC_NODE": 175.6651, "ARG_OF_PERICENTER": 240.8119, "MEAN_ANOMALY": 131.857, "EPHEMERIS_TYPE": 0, "CLASSIFICATION_TYPE": "U", "NORAD_CAT_ID": 35602, "ELEMENT_SET_NO": 999, "REV_AT_EPOCH": 90138, "BSTAR": 0.00037135789, "MEAN_MOTION_DOT": 0.00014455, "MEAN_MOTION_DDOT": 0}, "tle": {"line1": "1 35602U 93036AMV 25349.78350031  .00014455  00000+0  37136-3 0  9998", "line2": "2 35602  73.9934 175.6651 0089568 240.8119 131.8570 15.35191565901382"}}, "geometry": {"type": "Point", "coordinates": [-35.36680645977119, 59.82786477973276]}}, {"type": "Feature", "properties": {"norad_id": 35605, "name": "COSMOS 2251 DEB", "group": "cosmos-2251-debris", "lat": 11.769393535845168, "lon": 145.11602845763136, "alt_km": 457.1806633464539, "timestamp": "2025-12-16T10:53:45.867438+00:00", "meta": {"OBJECT_NAME": "COSMOS 2251 DEB", "OBJECT_ID": "1993-036AMY", "EPOCH": "2025-12-13T05:33:00.611712", "MEAN_MOTION": 15.34448038, "ECCENTRICITY": 0.00255309, "INCLINATION": 73.8715, "RA_OF_ASC_NODE": 335.5566, "ARG_OF_PERICENTER": 266.9711, "MEAN_ANOMALY": 92.8571, "EPHEMERIS_TYPE": 0, "CLASSIFICATION_TYPE": "U", "NORAD_CAT_ID": 35605, "ELEMENT_SET_NO": 999, "REV_AT_EPOCH": 65979, "BSTAR": 0.010289697, "MEAN_MOTION_DOT": 0.0036361, "MEAN_MOTION_DDOT": 0}, "tle": {"line1": "1 35605U 93036AMY 25347.23125708  .00363610  00000+0  10290-1 0  9990", "line2": "2 35605  73.8715 335.5566 0025530 266.9711  92.8571 15.34448038659790"}}, "geometry": {"type": "Point", "coordinates": [145.11602845763136, 11.769393535845168]}}, {"type": "Feature", "properties": {"norad_id": 35606, "name": "COSMOS 2251 DEB", "group": "cosmos-2251-debris", "lat": 51.80984271907191, "lon": 163.20515932836867, "alt_km": 1054.4954254986887, "timestamp": "2025-12-16T10:53:45.867448+00:00", "meta": {"OBJECT_NAME": "COSMOS 2251 DEB", "OBJECT_ID": "1993-036AMZ", "EPOCH": "2025-12-15T07:23:01.893984", "MEAN_MOTION": 13.41214459, "ECCENTRICITY": 0.04573982, "INCLINATION": 73.8103, "RA_OF_ASC_NODE": 6.7036, "ARG_OF_PERICENTER": 212.0605, "MEAN_ANOMALY": 145.1917, "EPHEMERIS_TYPE": 0, "CLASSIFICATION_TYPE": "U", "NORAD_CAT_ID": 35606, "ELEMENT_SET_NO": 999, "REV_AT_EPOCH": 61074, "BSTAR": 0.00058042329, "MEAN_MOTION_DOT": 5.74e-06, "MEAN_MOTION_DDOT": 0}, "tle": {"line1": "1 35606U 93036AMZ 25349.30766081  .00000574  00000+0  58042-3 0  9992", "line2": "2 35606  73.8103   6.7036 0457398 212.0605 145.1917 13.41214459610748"}}, "geometry": {"type": "Point", "coordinates": [163.20515932836867, 51.80984271907191]}}, {"type": "Feature", "properties": {"norad_id": 35611, "name": "COSMOS 2251 DEB", "group": "cosmos-2251-debris", "lat": -32.38118141271252, "lon": 2.5312090984984734, "alt_km": 644.4191884524453, "timestamp": "2025-12-16T10:53:45.867458+00:00", "meta": {"OBJECT_NAME": "COSMOS 2251 DEB", "OBJECT_ID": "1993-036ANE", "EPOCH": "2025-12-14T22:03:55.318464", "MEAN_MOTION": 14.72918088, "ECCENTRICITY": 0.00215588, "INCLINATION": 74.0194, "RA_OF_ASC_NODE": 175.0515, "ARG_OF_PERICENTER": 247.96, "MEAN_ANOMALY": 111.9283, "EPHEMERIS_TYPE": 0, "CLASSIFICATION_TYPE": "U", "NORAD_CAT_ID": 35611, "ELEMENT_SET_NO": 999, "REV_AT_EPOCH": 87322, "BSTAR": 0.0014598859, "MEAN_MOTION_DOT": 9.374e-05, "MEAN_MOTION_DDOT": 0}, "tle": {"line1": "1 35611U 93036ANE 25348.91939026  .00009374  00000+0  14599-2 0  9990", "line2": "2 35611  74.0194 175.0515 0021558 247.9600 111.9283 14.72918088873221"}}, "geometry": {"type": "Point", "coordinates": [2.5312090984984734, -32.38118141271252]}}, {"type": "Feature", "properties": {"norad_id": 35614, "name": "COSMOS 2251 DEB", "group": "cosmos-2251-debris", "lat": -68.97466487582021, "lon": -171.27378255540128, "alt_km": 669.8210364142096, "timestamp": "2025-12-16T10:53:45.867468+00:00", "meta": {"OBJECT_NAME": "COSMOS 2251 DEB", "OBJECT_ID": "1993-036ANH", "EPOCH": "2025-12-13T06:27:06.231168", "MEAN_MOTION": 14.67025191, "ECCENTRICITY": 0.00756959, "INCLINATION": 73.9589, "RA_OF_ASC_NODE": 326.4366, "ARG_OF_PERICENTER": 180.7813, "MEAN_ANOMALY": 179.3251, "EPHEMERIS_TYPE": 0, "CLASSIFICATION_TYPE": "U", "NORAD_CAT_ID": 35614, "ELEMENT_SET_NO": 999, "REV_AT_EPOCH": 87737, "BSTAR": 0.0013853104, "MEAN_MOTION_DOT": 8.085e-05, "MEAN_MOTION_DDOT": 0}, "tle": {"line1": "1 35614U 93036ANH 25347.26882212  .00008085  00000+0  13853-2 0  9994", "line2": "2 35614  73.9589 326.4366 0075695 180.7813 179.3251 14.67025191877378"}}, "geometry": {"type": "Point", "coordinates": [-171.27378255540128, -68.97466487582021]}}, {"type": "Feature", "properties": {"norad_id": 35645, "name": "COSMOS 2251 DEB", "group": "cosmos-2251-debris", "lat": 46.30968203150767, "lon": 98.29724670590691, "alt_km": 784.4687345919119, "timestamp": "2025-12-16T10:53:45.867478+00:00", "meta": {"OBJECT_NAME": "COSMOS 2251 DEB", "OBJECT_ID": "1993-036ANL", "EPOCH": "2025-12-15T06:26:03.005376", "MEAN_MOTION": 14.45625308, "ECCENTRICITY": 0.00696354, "INCLINATION": 73.9644, "RA_OF_ASC_NODE": 82.996, "ARG_OF_PERICENTER": 240.4421, "MEAN_ANOMALY": 118.9784, "EPHEMERIS_TYPE": 0, "CLASSIFICATION_TYPE": "U", "NORAD_CAT_ID": 35645, "ELEMENT_SET_NO": 999, "REV_AT_EPOCH": 86808, "BSTAR": 0.0013484506, "MEAN_MOTION_DOT": 4.886e-05, "MEAN_MOTION_DDOT": 0}, "tle": {"line1": "1 35645U 93036ANL 25349.26809034  .00004886  00000+0  13485-2 0  9997", "line2": "2 35645  73.9644  82.9960 0069635 240.4421 118.9784 14.45625308868084"}}, "geometry": {"type": "Point", "coordinates": [98.29724670590691, 46.30968203150767]}}, {"type": "Feature", "properties": {"norad_id": 35646, "name": "COSMOS 2251 DEB", "group": "cosmos-2251-debris", "lat": 8.846302870949811, "lon": 52.716398000601274, "alt_km": 1400.6696760334635, "timestamp": "2025-12-16T10:53:45.867488+00:00", "meta": {"OBJECT_NAME": "COSMOS 2251 DEB", "OBJECT_ID": "1993-036ANM", "EPOCH": "2025-12-15T23:10:17.358816", "MEAN_MOTION": 13.40825911, "ECCENTRICITY": 0.04566629, "INCLINATION": 73.872, "RA_OF_ASC_NODE": 50.9103, "ARG_OF_PERICENTER": 160.5551, "MEAN_ANOMALY": 14.1916, "EPHEMERIS_TYPE": 0, "CLASSIFICATION_TYPE": "U", "NORAD_CAT_ID": 35646, "ELEMENT_SET_NO": 999, "REV_AT_EPOCH": 81901, "BSTAR": 0.00060262644, "MEAN_MOTION_DOT": 5.94e-06, "MEAN_MOTION_DDOT": 0}, "tle": {"line1": "1 35646U 93036ANM 25349.96547869  .00000594  00000+0  60263-3 0  9999", "line2": "2 35646  73.8720  50.9103 0456662 160.5551  14.1916 13.40825911819018"}}, "geometry": {"type": "Point", "coordinates": [52.716398000601274, 8.846302870949811]}}, {"type": "Feature", "properties": {"norad_id": 35647, "name": "COSMOS 2251 DEB", "group": "cosmos-2251-debris", "lat": 73.51039858486001, "lon": 32.22748345279963, "alt_km": 726.8659056983088, "timestamp": "2025-12-16T10:53:45.867498+00:00", "meta": {"OBJECT_NAME": "COSMOS 2251 DEB", "OBJECT_ID": "1993-036ANN", "EPOCH": "2025-12-14T13:33:39.686688", "MEAN_MOTION": 14.43645909, "ECCENTRICITY": 0.00456042, "INCLINATION": 74.0231, "RA_OF_ASC_NODE": 291.1692, "ARG_OF_PERICENTER": 29.8407, "MEAN_ANOMALY": 330.5335, "EPHEMERIS_TYPE": 0, "CLASSIFICATION_TYPE": "U", "NORAD_CAT_ID": 35647, "ELEMENT_SET_NO": 999, "REV_AT_EPOCH": 67690, "BSTAR": 0.00083775206, "MEAN_MOTION_DOT": 2.853e-05, "MEAN_MOTION_DDOT": 0}, "tle": {"line1": "1 35647U 93036ANN 25348.56504267  .00002853  00000+0  83775-3 0  9993", "line2": "2 35647  74.0231 291.1692 0045604  29.8407 330.5335 14.43645909676908"}}, "geometry": {"type": "Point", "coordinates": [32.22748345279963, 73.51039858486001]}}, {"type": "Feature", "properties": {"norad_id": 35650, "name": "COSMOS 2251 DEB", "group": "cosmos-2251-debris", "lat": 71.35229754675406, "lon": 69.48838735318968, "alt_km": 600.89331872821, "timestamp": "2025-12-16T10:53:45.867508+00:00", "meta": {"OBJECT_NAME": "COSMOS 2251 DEB", "OBJECT_ID": "1993-036ANR", "EPOCH": "2025-12-15T12:33:46.308096", "MEAN_MOTION": 14.83702791, "ECCENTRICITY": 0.00147172, "INCLINATION": 74.0457, "RA_OF_ASC_NODE": 13.3655, "ARG_OF_PERICENTER": 59.2624, "MEAN_ANOMALY": 92.6096, "EPHEMERIS_TYPE": 0, "CLASSIFICATION_TYPE": "U", "NORAD_CAT_ID": 35650, "ELEMENT_SET_NO": 999, "REV_AT_EPOCH": 87675, "BSTAR": 0.0010546693, "MEAN_MOTION_DOT": 8.711e-05, "MEAN_MOTION_DDOT": 0}, "tle": {"line1": "1 35650U 93036ANR 25349.52345264  .00008711  00000+0  10547-2 0  9999", "line2": "2 35650  74.0457  13.3655 0014717  59.2624  92.6096 14.83702791876756"}}, "geometry": {"type": "Point", "coordinates": [69.48838735318968, 71.35229754675406]}}]}